[
    {
        "Altitude(m)": 610399.5362699638,
        "Argument of Periapsis(deg)": 0.0,
        "Eccentricity": 0.0,
        "Inclination(deg)": 60.0,
        "Latitude(deg)": 52.111355447004385,
        "Longitude(deg)": 2.584157327266979,
        "Mean Anomaly(deg)": 65.4545,
        "RAAN(deg)": 55.00000000000001,
        "Satellite Name": "Test1 246",
        "Satellite Number": 246,
        "Semi-Major Axis(m)": 6980739.136638005,
        "Time(s)": 0
    },
    {
        "Altitude(m)": 610481.68790382,
        "Argument of Periapsis(deg)": 0.00010418945913296404,
        "Eccentricity": 0.0,
        "Inclination(deg)": 60.0,
        "Latitude(deg)": 52.470959281857716,
        "Longitude(deg)": 3.3662919852685795,
        "Mean Anomaly(deg)": 66.07460614546181,
        "RAAN(deg)": 54.999579950860266,
        "Satellite Name": "Test1 246",
        "Satellite Number": 246,
        "Semi-Major Axis(m)": 6980739.136638005,
        "Time(s)": 10
    }
]